{"type": "FeatureCollection", "features": [ {"type": "Feature", "properties": {"norad_id": 44476, "name": "INTELSAT 39 (IS-39)", "group": "intelsat", "lat": 0.018257106853328774, "lon": 10.874717869208595, "alt_km": 35789.36044801441, "timestamp": "2025-12-20T14:38:01.626582+00:00", "meta": {"OBJECT_NAME": "INTELSAT 39 (IS-39)", "OBJECT_ID": "2019-049B", "EPOCH": "2025-12-20T04:57:56.104704", "MEAN_MOTION": 1.00270763, "ECCENTRICITY": 0.00011682, "INCLINATION": 0.0186, "RA_OF_ASC_NODE": 341.013, "ARG_OF_PERICENTER": 158.0135, "MEAN_ANOMALY": 86.4497, "EPHEMERIS_TYPE": 0, "CLASSIFICATION_TYPE": "U", "NORAD_CAT_ID": 44476, "ELEMENT_SET_NO": 999, "REV_AT_EPOCH": 2333, "BSTAR": 0, "MEAN_MOTION_DOT": 5.7e-07, "MEAN_MOTION_DDOT": 0}, "tle": {"line1": "1 44476U 19049B   25354.20689936  .00000057  00000+0  00000+0 0  9990", "line2": "2 44476   0.0186 341.0130 0001168 158.0135  86.4497  1.00270763 23338"}}, "geometry": {"type": "Point", "coordinates": [10.874717869208595, 0.018257106853328774]}}, {"type": "Feature", "properties": {"norad_id": 46114, "name": "GALAXY 30 (G-30)", "group": "intelsat", "lat": -0.004071940466357085, "lon": -176.06671132302654, "alt_km": 35785.12793530187, "timestamp": "2025-12-20T14:38:01.626594+00:00", "meta": {"OBJECT_NAME": "GALAXY 30 (G-30)", "OBJECT_ID": "2020-056C", "EPOCH": "2025-12-20T05:46:45.532128", "MEAN_MOTION": 1.00273206, "ECCENTRICITY": 0.00020308, "INCLINATION": 0.0015, "RA_OF_ASC_NODE": 355.2926, "ARG_OF_PERICENTER": 275.1149, "MEAN_ANOMALY": 140.376, "EPHEMERIS_TYPE": 0, "CLASSIFICATION_TYPE": "U", "NORAD_CAT_ID": 46114, "ELEMENT_SET_NO": 999, "REV_AT_EPOCH": 1949, "BSTAR": 0, "MEAN_MOTION_DOT": 6e-07, "MEAN_MOTION_DDOT": 0}, "tle": {"line1": "1 46114U 20056C   25354.24080477  .00000060  00000+0  00000+0 0  9994", "line2": "2 46114   0.0015 355.2926 0002030 275.1149 140.3760  1.00273206 19495"}}, "geometry": {"type": "Point", "coordinates": [-176.06671132302654, -0.004071940466357085]}}, {"type": "Feature", "properties": {"norad_id": 54026, "name": "GALAXY 33 (G-33)", "group": "intelsat", "lat": 0.015320084073383254, "lon": 175.92238781505634, "alt_km": 35786.52455981398, "timestamp": "2025-12-20T14:38:01.626606+00:00", "meta": {"OBJECT_NAME": "GALAXY 33 (G-33)", "OBJECT_ID": "2022-128A", "EPOCH": "2025-12-20T04:45:38.640960", "MEAN_MOTION": 1.00271193, "ECCENTRICITY": 0.00015456, "INCLINATION": 0.0153, "RA_OF_ASC_NODE": 39.0928, "ARG_OF_PERICENTER": 229.5851, "MEAN_ANOMALY": 118.7712, "EPHEMERIS_TYPE": 0, "CLASSIFICATION_TYPE": "U", "NORAD_CAT_ID": 54026, "ELEMENT_SET_NO": 999, "REV_AT_EPOCH": 1194, "BSTAR": 0, "MEAN_MOTION_DOT": 1.03e-06, "MEAN_MOTION_DDOT": 0}, "tle": {"line1": "1 54026U 22128A   25354.19836390  .00000103  00000+0  00000+0 0  9992", "line2": "2 54026   0.0153  39.0928 0001545 229.5851 118.7712  1.00271193 11942"}}, "geometry": {"type": "Point", "coordinates": [175.92238781505634, 0.015320084073383254]}}, {"type": "Feature", "properties": {"norad_id": 54027, "name": "GALAXY 34 (G-34)", "group": "intelsat", "lat": 0.003701224837656572, "lon": 179.97111709391686, "alt_km": 35786.27080516568, "timestamp": "2025-12-20T14:38:01.626617+00:00", "meta": {"OBJECT_NAME": "GALAXY 34 (G-34)", "OBJECT_ID": "2022-128B", "EPOCH": "2025-12-20T04:45:38.640960", "MEAN_MOTION": 1.00267808, "ECCENTRICITY": 0.00018371, "INCLINATION": 0.0229, "RA_OF_ASC_NODE": 8.4334, "ARG_OF_PERICENTER": 254.8895, "MEAN_ANOMALY": 128.1832, "EPHEMERIS_TYPE": 0, "CLASSIFICATION_TYPE": "U", "NORAD_CAT_ID": 54027, "ELEMENT_SET_NO": 999, "REV_AT_EPOCH": 1211, "BSTAR": 0, "MEAN_MOTION_DOT": 0, "MEAN_MOTION_DDOT": 0}, "tle": {"line1": "1 54027U 22128B   25354.19836390  .00000000  00000+0  00000+0 0  9999", "line2": "2 54027   0.0229   8.4334 0001837 254.8895 128.1832  1.00267808 12117"}}, "geometry": {"type": "Point", "coordinates": [179.97111709391686, 0.003701224837656572]}}, {"type": "Feature", "properties": {"norad_id": 54243, "name": "GALAXY 31 (G-31)", "group": "intelsat", "lat": 0.008957792287373503, "lon": -172.07623686994373, "alt_km": 35786.349830780804, "timestamp": "2025-12-20T14:38:01.626629+00:00", "meta": {"OBJECT_NAME": "GALAXY 31 (G-31)", "OBJECT_ID": "2022-153A", "EPOCH": "2025-12-20T04:05:46.099680", "MEAN_MOTION": 1.00271074, "ECCENTRICITY": 0.00013698, "INCLINATION": 0.017, "RA_OF_ASC_NODE": 78.321, "ARG_OF_PERICENTER": 200.6206, "MEAN_ANOMALY": 110.5109, "EPHEMERIS_TYPE": 0, "CLASSIFICATION_TYPE": "U", "NORAD_CAT_ID": 54243, "ELEMENT_SET_NO": 999, "REV_AT_EPOCH": 533, "BSTAR": 0, "MEAN_MOTION_DOT": 3.7e-07, "MEAN_MOTION_DDOT": 0}, "tle": {"line1": "1 54243U 22153A   25354.17067245  .00000037  00000+0  00000+0 0  9990", "line2": "2 54243   0.0170  78.3210 0001369 200.6206 110.5109  1.00271074  5334"}}, "geometry": {"type": "Point", "coordinates": [-172.07623686994373, 0.008957792287373503]}}, {"type": "Feature", "properties": {"norad_id": 54244, "name": "GALAXY 32 (G-32)", "group": "intelsat", "lat": -0.02202257281216757, "lon": -142.07743329726256, "alt_km": 35787.77974097428, "timestamp": "2025-12-20T14:38:01.626641+00:00", "meta": {"OBJECT_NAME": "GALAXY 32 (G-32)", "OBJECT_ID": "2022-153B", "EPOCH": "2025-12-19T12:21:45.204192", "MEAN_MOTION": 1.00271304, "ECCENTRICITY": 0.0001932, "INCLINATION": 0.0112, "RA_OF_ASC_NODE": 8.1777, "ARG_OF_PERICENTER": 310.6888, "MEAN_ANOMALY": 223.9419, "EPHEMERIS_TYPE": 0, "CLASSIFICATION_TYPE": "U", "NORAD_CAT_ID": 54244, "ELEMENT_SET_NO": 999, "REV_AT_EPOCH": 1134, "BSTAR": 0, "MEAN_MOTION_DOT": -1.5e-06, "MEAN_MOTION_DDOT": 0}, "tle": {"line1": "1 54244U 22153B   25353.51510653 -.00000150  00000+0  00000+0 0  9991", "line2": "2 54244   0.0112   8.1777 0001932 310.6888 223.9419  1.00271304 11341"}}, "geometry": {"type": "Point", "coordinates": [-142.07743329726256, -0.02202257281216757]}}, {"type": "Feature", "properties": {"norad_id": 54741, "name": "GALAXY 35 (G-35)", "group": "intelsat", "lat": -0.006385073081514902, "lon": -144.17535743338948, "alt_km": 35780.90667134812, "timestamp": "2025-12-20T14:38:01.626652+00:00", "meta": {"OBJECT_NAME": "GALAXY 35 (G-35)", "OBJECT_ID": "2022-170A", "EPOCH": "2025-12-20T04:13:38.642880", "MEAN_MOTION": 1.00272292, "ECCENTRICITY": 0.00021453, "INCLINATION": 0.015, "RA_OF_ASC_NODE": 47.9126, "ARG_OF_PERICENTER": 224.1788, "MEAN_ANOMALY": 147.2393, "EPHEMERIS_TYPE": 0, "CLASSIFICATION_TYPE": "U", "NORAD_CAT_ID": 54741, "ELEMENT_SET_NO": 999, "REV_AT_EPOCH": 1109, "BSTAR": 0, "MEAN_MOTION_DOT": -1.38e-06, "MEAN_MOTION_DDOT": 0}, "tle": {"line1": "1 54741U 22170A   25354.17614170 -.00000138  00000+0  00000+0 0  9990", "line2": "2 54741   0.0150  47.9126 0002145 224.1788 147.2393  1.00272292 11097"}}, "geometry": {"type": "Point", "coordinates": [-144.17535743338948, -0.006385073081514902]}}, {"type": "Feature", "properties": {"norad_id": 54742, "name": "GALAXY 36 (G-36)", "group": "intelsat", "lat": -0.028024684942070652, "lon": -140.07895009420716, "alt_km": 35787.81876607748, "timestamp": "2025-12-20T14:38:01.626664+00:00", "meta": {"OBJECT_NAME": "GALAXY 36 (G-36)", "OBJECT_ID": "2022-170B", "EPOCH": "2025-12-19T11:26:17.746656", "MEAN_MOTION": 1.00269448, "ECCENTRICITY": 3.277e-05, "INCLINATION": 0.0154, "RA_OF_ASC_NODE": 1.2484, "ARG_OF_PERICENTER": 356.3227, "MEAN_ANOMALY": 173.3219, "EPHEMERIS_TYPE": 0, "CLASSIFICATION_TYPE": "U", "NORAD_CAT_ID": 54742, "ELEMENT_SET_NO": 999, "REV_AT_EPOCH": 1097, "BSTAR": 0, "MEAN_MOTION_DOT": 0, "MEAN_MOTION_DDOT": 0}, "tle": {"line1": "1 54742U 22170B   25353.47659429  .00000000  00000+0  00000+0 0  9996", "line2": "2 54742   0.0154   1.2484 0000327 356.3227 173.3219  1.00269448 10970"}}, "geometry": {"type": "Point", "coordinates": [-140.07895009420716, -0.028024684942070652]}}, {"type": "Feature", "properties": {"norad_id": 57493, "name": "GALAXY 37 (G-37)", "group": "intelsat", "lat": -0.004125311623754589, "lon": -178.08836335344367, "alt_km": 35786.31545030813, "timestamp": "2025-12-20T14:38:01.626675+00:00", "meta": {"OBJECT_NAME": "GALAXY 37 (G-37)", "OBJECT_ID": "2023-112A", "EPOCH": "2025-12-20T04:45:38.640960", "MEAN_MOTION": 1.00270819, "ECCENTRICITY": 0.00019203, "INCLINATION": 0.0153, "RA_OF_ASC_NODE": 356.3193, "ARG_OF_PERICENTER": 275.5687, "MEAN_ANOMALY": 121.5554, "EPHEMERIS_TYPE": 0, "CLASSIFICATION_TYPE": "U", "NORAD_CAT_ID": 57493, "ELEMENT_SET_NO": 999, "REV_AT_EPOCH": 874, "BSTAR": 0, "MEAN_MOTION_DOT": 7.2e-07, "MEAN_MOTION_DDOT": 0}, "tle": {"line1": "1 57493U 23112A   25354.19836390  .00000072  00000+0  00000+0 0  9992", "line2": "2 57493   0.0153 356.3193 0001920 275.5687 121.5554  1.00270819  8741"}}, "geometry": {"type": "Point", "coordinates": [-178.08836335344367, -0.004125311623754589]}}]}